NORAD_CAT_ID,OBJECT_NAME,OBJECT_TYPE,EPOCH,MEAN_MOTION,ECCENTRICITY,INCLINATION,RA_OF_ASC_NODE,ARG_OF_PERICENTER,MEAN_ANOMALY,BSTAR,MEAN_MOTION_DOT,MEAN_MOTION_DDOT,TLE_LINE0,TLE_LINE1,TLE_LINE2,SEMIMAJOR_AXIS,PERIOD,APOGEE,PERIGEE,DECAYED
53841.0,STARLINK-4750,PAYLOAD,2024-02-25 07:16:02,15.08863565,0.0001672,53.2195,31.4443,93.1921,266.9263,0.00022194,3.248e-05,0.0,0 STARLINK-4750,1 53841U 22114Z   24056.30281205  .00003248  00000-0  22194-3 0  9997,2 53841  53.2195  31.4443 0001672  93.1921 266.9263 15.08863565 80748,6917.808,95.436,540.83,538.517,0.0
53841.0,STARLINK-4750,PAYLOAD,2024-02-25 15:12:59,15.08844777,0.0001944,53.2202,29.9572,76.104,284.0168,7.6755e-05,9.34e-06,0.0,0 STARLINK-4750,1 53841U 22114Z   24056.63402758  .00000934  00000-0  76755-4 0  9993,2 53841  53.2202  29.9572 0001944  76.1040 284.0168 15.08844777 80252,6917.866,95.437,541.076,538.386,0.0
53841.0,STARLINK-4750,PAYLOAD,2024-02-26 03:56:06,15.08826661,0.0001757,53.2205,27.5766,78.0442,282.0747,-0.00018447,-3.222e-05,0.0,0 STARLINK-4750,1 53841U 22114Z   24057.16396890 -.00003222  00000-0 -18447-3 0  9999,2 53841  53.2205  27.5766 0001757  78.0442 282.0747 15.08826661 80335,6917.921,95.438,541.002,538.571,0.0
53841.0,STARLINK-4750,PAYLOAD,2024-02-26 05:31:29,15.08827054,0.0001616,53.2189,27.2785,76.0721,284.0451,-0.00016939,-2.982e-05,0.0,0 STARLINK-4750,1 53841U 22114Z   24057.23020822 -.00002982  00000-0 -16939-3 0  9992,2 53841  53.2189  27.2785 0001616  76.0721 284.0451 15.08827054 80887,6917.92,95.438,540.903,538.667,0.0
53841.0,STARLINK-4750,PAYLOAD,2024-02-26 21:25:20,15.08837573,0.000192,53.2205,24.3078,82.1993,277.9217,-0.00014392,-2.578e-05,0.0,0 STARLINK-4750,1 53841U 22114Z   24057.89260347 -.00002578  00000-0 -14392-3 0  9994,2 53841  53.2205  24.3078 0001920  82.1993 277.9217 15.08837573 80985,6917.888,95.438,541.081,538.425,0.0
53841.0,STARLINK-4750,PAYLOAD,2024-02-27 03:46:52,15.08846311,0.0001734,53.219,23.1196,85.0164,275.1026,-0.00011458,-2.112e-05,0.0,0 STARLINK-4750,1 53841U 22114Z   24058.15755627 -.00002112  00000-0 -11458-3 0  9998,2 53841  53.2190  23.1196 0001734  85.0164 275.1026 15.08846311 80484,6917.861,95.437,540.926,538.527,0.0
53841.0,STARLINK-4750,PAYLOAD,2024-02-27 06:57:38,15.08844277,0.0001775,53.2184,22.523,80.549,279.5703,2.8307e-05,1.62e-06,0.0,0 STARLINK-4750,1 53841U 22114Z   24058.29003361  .00000162  00000-0  28307-4 0  9997,2 53841  53.2184  22.5230 0001775  80.5490 279.5703 15.08844277 81048,6917.867,95.437,540.96,538.504,0.0
53841.0,STARLINK-4750,PAYLOAD,2024-02-27 21:16:08,15.08829157,0.0001737,53.2176,19.8452,84.1423,275.9767,0.00033092,4.981e-05,0.0,0 STARLINK-4750,1 53841U 22114Z   24058.88620735  .00004981  00000-0  33092-3 0  9991,2 53841  53.2176  19.8452 0001737  84.1423 275.9767 15.08829157 81138,6917.914,95.438,540.98,538.577,0.0
53841.0,STARLINK-4750,PAYLOAD,2024-02-28 03:37:40,15.08833862,0.0001568,53.2197,18.6556,86.1893,273.9278,0.00035509,5.367e-05,0.0,0 STARLINK-4750,1 53841U 22114Z   24059.15116618  .00005367  00000-0  35509-3 0  9996,2 53841  53.2197  18.6556 0001568  86.1893 273.9278 15.08833862 80635,6917.899,95.438,540.849,538.679,0.0
53841.0,STARLINK-4750,PAYLOAD,2024-02-28 14:45:22,15.0884125,0.0001483,53.2167,16.577,83.4789,276.6372,0.00028641,4.273e-05,0.0,0 STARLINK-4750,1 53841U 22114Z   24059.61484249  .00004273  00000-0  28641-3 0  9999,2 53841  53.2167  16.5770 0001483  83.4789 276.6372 15.08841250 81240,6917.877,95.437,540.767,538.716,0.0
53841.0,STARLINK-4750,PAYLOAD,2024-02-29 06:39:13,15.08844517,0.0001723,53.2187,13.601,94.4447,265.6742,0.00011387,1.525e-05,0.0,0 STARLINK-4750,1 53841U 22114Z   24060.27724170  .00001525  00000-0  11387-3 0  9999,2 53841  53.2187  13.6010 0001723  94.4447 265.6742 15.08844517 80806,6917.867,95.437,540.924,538.54,0.0
53841.0,STARLINK-4750,PAYLOAD,2024-03-01 03:19:12,15.08868356,0.0001562,53.2189,9.7372,98.147,261.9699,0.00028467,4.249e-05,0.0,0 STARLINK-4750,1 53841U 22114Z   24061.13834343  .00004249  00000-0  28467-3 0  9992,2 53841  53.2189   9.7372 0001562  98.1470 261.9699 15.08868356 80934,6917.794,95.436,540.739,538.578,0.0
53841.0,STARLINK-4750,PAYLOAD,2024-03-01 06:29:58,15.08873112,0.0001508,53.2188,9.1418,96.8131,263.3033,0.00031246,4.693e-05,0.0,0 STARLINK-4750,1 53841U 22114Z   24061.27081800  .00004693  00000-0  31246-3 0  9991,2 53841  53.2188   9.1418 0001508  96.8131 263.3033 15.08873112 81493,6917.779,95.435,540.687,538.601,0.0
53841.0,STARLINK-4750,PAYLOAD,2024-03-02 03:10:01,15.08840001,0.0001596,53.2192,5.2709,106.8771,253.2396,7.5637e-05,9.16e-06,0.0,0 STARLINK-4750,1 53841U 22114Z   24062.13196116  .00000916  00000-0  75637-4 0  9991,2 53841  53.2192   5.2709 0001596 106.8771 253.2396 15.08840001 81083,6917.88,95.438,540.849,538.641,0.0
53841.0,STARLINK-4750,PAYLOAD,2024-03-03 04:36:11,15.08852934,0.0001603,53.2198,0.5196,114.5545,245.5614,-0.00016487,-2.912e-05,0.0,0 STARLINK-4750,1 53841U 22114Z   24063.19180261 -.00002912  00000-0 -16487-3 0  9999,2 53841  53.2198   0.5196 0001603 114.5545 245.5614 15.08852934 81244,6917.841,95.437,540.815,538.597,0.0
53841.0,STARLINK-4750,PAYLOAD,2024-03-04 12:23:54,15.08838373,0.0001582,53.2194,354.5721,88.0007,272.1166,0.0001034,1.358e-05,0.0,0 STARLINK-4750,1 53841U 22114Z   24064.51660677  .00001358  00000-0  10340-3 0  9993,2 53841  53.2194 354.5721 0001582  88.0007 272.1166 15.08838373 81441,6917.885,95.438,540.845,538.656,0.0
53841.0,STARLINK-4750,PAYLOAD,2024-03-05 02:42:22,15.08851747,0.0001216,53.2187,351.8944,106.0645,254.0481,0.00017794,2.546e-05,0.0,0 STARLINK-4750,1 53841U 22114Z   24065.11275505  .00002546  00000-0  17794-3 0  9992,2 53841  53.2187 351.8944 0001216 106.0645 254.0481 15.08851747 81532,6917.844,95.437,540.551,538.868,0.0
53841.0,STARLINK-4750,PAYLOAD,2024-03-05 04:17:45,15.08852952,0.0001222,53.2186,351.597,104.4313,255.6814,0.00018363,2.637e-05,0.0,0 STARLINK-4750,1 53841U 22114Z   24065.17899380  .00002637  00000-0  18363-3 0  9995,2 53841  53.2186 351.5970 0001222 104.4313 255.6814 15.08852952 82085,6917.841,95.437,540.551,538.86,0.0
53841.0,STARLINK-4750,PAYLOAD,2024-03-05 18:36:15,15.08830971,0.0001648,53.2184,348.9206,82.3655,277.7524,-6.5575e-07,-2.98e-06,0.0,0 STARLINK-4750,1 53841U 22114Z   24065.77517715 -.00000298  00000-0 -65575-6 0  9993,2 53841  53.2184 348.9206 0001648  82.3655 277.7524 15.08830971 81630,6917.908,95.438,540.913,538.633,0.0
53841.0,STARLINK-4750,PAYLOAD,2024-03-06 02:33:10,15.08842426,0.00015,53.2187,347.4353,83.9595,276.1568,-0.00011506,-2.119e-05,0.0,0 STARLINK-4750,1 53841U 22114Z   24066.10637457 -.00002119  00000-0 -11506-3 0  9993,2 53841  53.2187 347.4353 0001500  83.9595 276.1568 15.08842426 81681,6917.873,95.437,540.776,538.7,0.0
53841.0,STARLINK-4750,PAYLOAD,2024-03-07 03:59:19,15.08852012,0.0001362,53.2179,342.6745,98.3841,261.7306,4.4826e-05,4.26e-06,0.0,0 STARLINK-4750,1 53841U 22114Z   24067.16620295  .00000426  00000-0  44826-4 0  9991,2 53841  53.2179 342.6745 0001362  98.3841 261.7306 15.08852012 81844,6917.844,95.437,540.651,538.766,0.0
53841.0,STARLINK-4750,PAYLOAD,2024-03-07 11:56:16,15.08844753,0.0001304,53.22,341.1885,93.4897,266.6244,-4.1558e-05,-9.49e-06,0.0,0 STARLINK-4750,1 53841U 22114Z   24067.49740884 -.00000949  00000-0 -41558-4 0  9995,2 53841  53.2200 341.1885 0001304  93.4897 266.6244 15.08844753 82435,6917.866,95.437,540.633,538.829,0.0
53841.0,STARLINK-4750,PAYLOAD,2024-03-08 00:39:21,15.08840582,0.0001518,53.218,338.81,98.3074,261.8091,0.00011294,1.51e-05,0.0,0 STARLINK-4750,1 53841U 22114Z   24068.02733207  .00001510  00000-0  11294-3 0  9992,2 53841  53.2180 338.8100 0001518  98.3074 261.8091 15.08840582 81974,6917.879,95.438,540.794,538.693,0.0
53841.0,STARLINK-4750,PAYLOAD,2024-03-08 03:50:07,15.08843516,0.0001493,53.2181,338.2143,103.6454,256.4705,0.00011404,1.528e-05,0.0,0 STARLINK-4750,1 53841U 22114Z   24068.15980975  .00001528  00000-0  11404-3 0  9994,2 53841  53.2181 338.2143 0001493 103.6454 256.4705 15.08843516 82535,6917.87,95.437,540.767,538.702,0.0
53841.0,STARLINK-4750,PAYLOAD,2024-03-09 03:40:54,15.08843672,0.0001593,53.218,333.7535,105.2439,254.8729,3.6761e-05,2.97e-06,0.0,0 STARLINK-4750,1 53841U 22114Z   24069.15341093  .00000297  00000-0  36761-4 0  9993,2 53841  53.2180 333.7535 0001593 105.2439 254.8729 15.08843672 82149,6917.869,95.437,540.836,538.632,0.0
53841.0,STARLINK-4750,PAYLOAD,2024-03-09 10:02:27,15.08842114,0.0001563,53.218,332.5639,101.8586,258.2582,-2.4305e-06,-3.27e-06,0.0,0 STARLINK-4750,1 53841U 22114Z   24069.41837291 -.00000327  00000-0 -24305-5 0  9990,2 53841  53.2180 332.5639 0001563 101.8586 258.2582 15.08842114 82722,6917.874,95.437,540.82,538.658,0.0
53841.0,STARLINK-4750,PAYLOAD,2024-03-10 09:53:14,15.08837531,0.0001898,53.2204,328.1024,75.0431,285.0771,2.0479e-05,3.8e-07,0.0,0 STARLINK-4750,1 53841U 22114Z   24070.41197894  .00000038  00000-0  20479-4 0  9994,2 53841  53.2204 328.1024 0001898  75.0431 285.0771 15.08837531 82332,6917.888,95.438,541.066,538.44,0.0
53841.0,STARLINK-4750,PAYLOAD,2024-03-10 21:00:57,15.08830697,0.0001793,53.2181,326.0228,102.795,257.3243,6.448e-05,7.38e-06,0.0,0 STARLINK-4750,1 53841U 22114Z   24070.87566947  .00000738  00000-0  64480-4 0  9990,2 53841  53.2181 326.0228 0001793 102.7950 257.3243 15.08830697 82407,6917.909,95.438,541.014,538.533,0.0
53841.0,STARLINK-4750,PAYLOAD,2024-03-10 22:36:21,15.08831344,0.0001786,53.2184,325.7255,99.7623,260.3571,7.2245e-05,8.62e-06,0.0,0 STARLINK-4750,1 53841U 22114Z   24070.94190977  .00000862  00000-0  72245-4 0  9990,2 53841  53.2184 325.7255 0001786  99.7623 260.3571 15.08831344 82958,6917.907,95.438,541.007,538.536,0.0
53841.0,STARLINK-4750,PAYLOAD,2024-03-11 09:44:02,15.08839513,0.0001296,53.2182,323.6446,85.2979,274.8161,0.00013961,1.935e-05,0.0,0 STARLINK-4750,1 53841U 22114Z   24071.40558340  .00001935  00000-0  13961-3 0  9995,2 53841  53.2182 323.6446 0001296  85.2979 274.8161 15.08839513 82484,6917.882,95.438,540.643,538.85,0.0
